NORAD_CAT_ID,OBJECT_NAME,OBJECT_TYPE,EPOCH,MEAN_MOTION,ECCENTRICITY,INCLINATION,RA_OF_ASC_NODE,ARG_OF_PERICENTER,MEAN_ANOMALY,BSTAR,MEAN_MOTION_DOT,MEAN_MOTION_DDOT,TLE_LINE0,TLE_LINE1,TLE_LINE2,SEMIMAJOR_AXIS,PERIOD,APOGEE,PERIGEE,DECAYED
52559.0,STARLINK-3953,PAYLOAD,2024-04-08 04:11:11,15.08835441,0.0001807,53.2211,24.0367,91.3036,268.8163,-2.4272e-05,-6.74e-06,0.0,0 STARLINK-3953,1 52559U 22051AC  24099.17443765 -.00000674  00000-0 -24272-4 0  9997,2 52559  53.2211  24.0367 0001807  91.3036 268.8163 15.08835441105898,6917.894,95.438,541.009,538.509,0.0
52559.0,STARLINK-3953,PAYLOAD,2024-04-08 12:08:06,15.08837503,0.0001674,53.2191,22.5538,86.7239,273.3945,6.11e-05,6.84e-06,0.0,0 STARLINK-3953,1 52559U 22051AC  24099.50563518  .00000684  00000-0  61100-4 0  9993,2 52559  53.2191  22.5538 0001674  86.7239 273.3945 15.08837503105871,6917.888,95.438,540.911,538.595,0.0
52559.0,STARLINK-3953,PAYLOAD,2024-04-09 00:51:11,15.08846687,0.0001419,53.2184,20.1744,88.9949,271.1206,8.789e-05,1.111e-05,0.0,0 STARLINK-3953,1 52559U 22051AC  24100.03554730  .00001111  00000-0  87890-4 0  9990,2 52559  53.2184  20.1744 0001419  88.9949 271.1206 15.08846687105953,6917.86,95.437,540.707,538.743,0.0
52559.0,STARLINK-3953,PAYLOAD,2024-04-09 02:26:34,15.08851321,0.0001397,53.2186,19.877,88.5734,271.5418,7.1731e-05,8.54e-06,0.0,0 STARLINK-3953,1 52559U 22051AC  24100.10178484  .00000854  00000-0  71731-4 0  9996,2 52559  53.2186  19.8770 0001397  88.5734 271.5418 15.08851321106032,6917.846,95.437,540.677,538.744,0.0
52559.0,STARLINK-3953,PAYLOAD,2024-04-09 11:58:53,15.08840523,0.000165,53.2219,18.0889,82.3477,277.7703,1.9443e-05,2.1e-07,0.0,0 STARLINK-3953,1 52559U 22051AC  24100.49923316  .00000021  00000-0  19443-4 0  9998,2 52559  53.2219  18.0889 0001650  82.3477 277.7703 15.08840523106092,6917.879,95.438,540.885,538.602,0.0
52559.0,STARLINK-3953,PAYLOAD,2024-04-10 11:49:40,15.0883988,0.0001378,53.2181,13.63,87.6962,272.4188,5.53e-05,5.92e-06,0.0,0 STARLINK-3953,1 52559U 22051AC  24101.49283415  .00000592  00000-0  55300-4 0  9993,2 52559  53.2181  13.6300 0001378  87.6962 272.4188 15.08839880106175,6917.881,95.438,540.699,538.792,0.0
52559.0,STARLINK-3953,PAYLOAD,2024-04-10 21:21:59,15.08843409,0.0001481,53.2177,11.8454,88.073,272.0432,5.3436e-05,5.63e-06,0.0,0 STARLINK-3953,1 52559U 22051AC  24101.89027217  .00000563  00000-0  53436-4 0  9999,2 52559  53.2177  11.8454 0001481  88.0730 272.0432 15.08843409106308,6917.87,95.437,540.76,538.71,0.0
52559.0,STARLINK-3953,PAYLOAD,2024-04-10 22:57:22,15.08845098,0.0001556,53.2205,11.5471,91.4249,268.6922,5.2186e-05,5.43e-06,0.0,0 STARLINK-3953,1 52559U 22051AC  24101.95651119  .00000543  00000-0  52186-4 0  9999,2 52559  53.2205  11.5471 0001556  91.4249 268.6922 15.08845098106246,6917.865,95.437,540.806,538.653,0.0
52559.0,STARLINK-3953,PAYLOAD,2024-04-11 03:43:31,15.08854836,0.0001519,53.2198,10.6547,93.8745,266.2421,-8.0507e-06,-4.16e-06,0.0,0 STARLINK-3953,1 52559U 22051AC  24102.15522593 -.00000416  00000-0 -80507-5 0  9995,2 52559  53.2198  10.6547 0001519  93.8745 266.2421 15.08854836106346,6917.835,95.437,540.751,538.649,0.0
52559.0,STARLINK-3953,PAYLOAD,2024-04-11 21:12:46,15.08836614,0.0001522,53.2187,7.3829,93.9037,266.2129,7.987e-05,9.83e-06,0.0,0 STARLINK-3953,1 52559U 22051AC  24102.88387571  .00000983  00000-0  79870-4 0  9997,2 52559  53.2187   7.3829 0001522  93.9037 266.2129 15.08836614106450,6917.891,95.438,540.809,538.703,0.0
52559.0,STARLINK-3953,PAYLOAD,2024-04-12 00:23:31,15.08860826,0.0001893,53.2182,6.7898,97.5322,262.5886,0.00028441,4.244e-05,0.0,0 STARLINK-3953,1 52559U 22051AC  24103.01633499  .00004244  00000-0  28441-3 0  9997,2 52559  53.2182   6.7898 0001893  97.5322 262.5886 15.08860826106475,6917.817,95.436,540.991,538.372,0.0
52559.0,STARLINK-3953,PAYLOAD,2024-04-12 22:38:57,15.08831439,0.0001384,53.2195,2.6283,93.5443,266.5708,-2.6678e-05,-7.12e-06,0.0,0 STARLINK-3953,1 52559U 22051AC  24103.94372611 -.00000712  00000-0 -26678-4 0  9994,2 52559  53.2195   2.6283 0001384  93.5443 266.5708 15.08831439106540,6917.907,95.438,540.729,538.814,0.0
52559.0,STARLINK-3953,PAYLOAD,2024-04-13 00:14:22,15.08814101,0.0001422,53.2186,2.3307,72.2606,287.8541,-0.0002421,-4.136e-05,0.0,0 STARLINK-3953,1 52559U 22051AC  24104.00998234 -.00004136  00000-0 -24210-3 0  9990,2 52559  53.2186   2.3307 0001422  72.2606 287.8541 15.08814101106629,6917.96,95.439,540.808,538.841,0.0
52559.0,STARLINK-3953,PAYLOAD,2024-04-13 06:35:55,15.08813898,0.0001452,53.2188,1.1415,76.4865,283.6289,-0.00022743,-3.903e-05,0.0,0 STARLINK-3953,1 52559U 22051AC  24104.27494613 -.00003903  00000-0 -22743-3 0  9991,2 52559  53.2188   1.1415 0001452  76.4865 283.6289 15.08813898106595,6917.96,95.439,540.83,538.821,0.0
52559.0,STARLINK-3953,PAYLOAD,2024-04-13 20:54:22,15.0880353,0.0001455,53.2191,358.4658,80.7726,279.343,0.00046636,7.135e-05,0.0,0 STARLINK-3953,1 52559U 22051AC  24104.87109929  .00007135  00000-0  46636-3 0  9996,2 52559  53.2191 358.4658 0001455  80.7726 279.3430 15.08803530106753,6917.992,95.44,540.863,538.85,0.0
52559.0,STARLINK-3953,PAYLOAD,2024-04-14 00:05:08,15.08815847,0.0001442,53.2194,357.8717,86.7328,273.3829,0.00055544,8.557e-05,0.0,0 STARLINK-3953,1 52559U 22051AC  24105.00357237  .00008557  00000-0  55544-3 0  9996,2 52559  53.2194 357.8717 0001442  86.7328 273.3829 15.08815847106777,6917.954,95.439,540.817,538.822,0.0
52559.0,STARLINK-3953,PAYLOAD,2024-04-14 20:45:08,15.08837208,0.0001505,53.2194,354.0035,85.2563,274.8601,0.00052694,8.108e-05,0.0,0 STARLINK-3953,1 52559U 22051AC  24105.86468338  .00008108  00000-0  52694-3 0  9990,2 52559  53.2194 354.0035 0001505  85.2563 274.8601 15.08837208106908,6917.889,95.438,540.795,538.713,0.0
52559.0,STARLINK-3953,PAYLOAD,2024-04-14 22:20:32,15.08846688,0.0001545,53.2191,353.7075,82.3931,277.7237,0.00066865,0.00010372,0.0,0 STARLINK-3953,1 52559U 22051AC  24105.93092869  .00010372  00000-0  66865-3 0  9991,2 52559  53.2191 353.7075 0001545  82.3931 277.7237 15.08846688106848,6917.86,95.437,540.794,538.656,0.0
52559.0,STARLINK-3953,PAYLOAD,2024-04-15 01:31:18,15.08860027,0.0001645,53.2193,353.1125,74.8148,285.3026,0.00074809,0.00011644,0.0,0 STARLINK-3953,1 52559U 22051AC  24106.06340327  .00011644  00000-0  74809-3 0  9991,2 52559  53.2193 353.1125 0001645  74.8148 285.3026 15.08860027106931,6917.819,95.436,540.822,538.546,0.0
52559.0,STARLINK-3953,PAYLOAD,2024-04-15 20:35:54,15.08857959,0.0001679,53.2182,349.5439,126.1039,234.0108,6.1848e-05,6.97e-06,0.0,0 STARLINK-3953,1 52559U 22051AC  24106.85827427  .00000697  00000-0  61848-4 0  9995,2 52559  53.2182 349.5439 0001679 126.1039 234.0108 15.08857959107059,6917.825,95.436,540.852,538.529,0.0
52559.0,STARLINK-3953,PAYLOAD,2024-04-16 09:18:59,15.08854776,0.0001257,53.2176,347.1677,82.1126,278.0009,9.1312e-05,1.166e-05,0.0,0 STARLINK-3953,1 52559U 22051AC  24107.38819399  .00001166  00000-0  91312-4 0  9994,2 52559  53.2176 347.1677 0001257  82.1126 278.0009 15.08854776107063,6917.835,95.437,540.57,538.831,0.0
52559.0,STARLINK-3953,PAYLOAD,2024-04-16 20:26:41,15.08852141,3.84e-05,53.2179,345.0843,115.0814,245.0218,-3.1579e-05,-7.9e-06,0.0,0 STARLINK-3953,1 52559U 22051AC  24107.85186899 -.00000790  00000-0 -31579-4 0  9991,2 52559  53.2179 345.0843 0000384 115.0814 245.0218 15.08852141107204,6917.843,95.437,539.974,539.443,0.0
52559.0,STARLINK-3953,PAYLOAD,2024-04-16 22:02:03,15.08886006,0.0001223,53.2176,344.7869,162.1385,197.965,0.00087287,0.00013648,0.0,0 STARLINK-3953,1 52559U 22051AC  24107.91809662  .00013648  00000-0  87287-3 0  9998,2 52559  53.2176 344.7869 0001223 162.1385 197.9650 15.08886006107149,6917.74,95.435,540.451,538.759,0.0
52559.0,STARLINK-3953,PAYLOAD,2024-04-17 01:12:49,15.08882344,7.06e-05,53.2176,344.1922,96.5081,263.5991,0.00081709,0.00012755,0.0,0 STARLINK-3953,1 52559U 22051AC  24108.05057723  .00012755  00000-0  81709-3 0  9998,2 52559  53.2176 344.1922 0000706  96.5081 263.5991 15.08882344107230,6917.751,95.435,540.104,539.128,0.0
52559.0,STARLINK-3953,PAYLOAD,2024-04-17 21:52:52,15.08827875,0.0001276,53.218,340.3265,91.8051,268.3087,-9.9155e-05,-1.865e-05,0.0,0 STARLINK-3953,1 52559U 22051AC  24108.91172246 -.00001865  00000-0 -99155-4 0  9998,2 52559  53.2180 340.3265 0001276  91.8051 268.3087 15.08827875107362,6917.917,95.438,540.665,538.9,0.0
52559.0,STARLINK-3953,PAYLOAD,2024-04-18 01:03:38,15.08832605,0.0001278,53.2184,339.7316,89.8281,270.2858,3.9084e-05,3.34e-06,0.0,0 STARLINK-3953,1 52559U 22051AC  24109.04420067  .00000334  00000-0  39084-4 0  9993,2 52559  53.2184 339.7316 0001278  89.8281 270.2858 15.08832605107319,6917.903,95.438,540.652,538.884,0.0
52559.0,STARLINK-3953,PAYLOAD,2024-04-18 20:08:17,15.08839465,0.0001495,53.22,336.1635,93.9961,266.1202,0.00040264,6.126e-05,0.0,0 STARLINK-3953,1 52559U 22051AC  24109.83908633  .00006126  00000-0  40264-3 0  9996,2 52559  53.2200 336.1635 0001495  93.9961 266.1202 15.08839465107504,6917.882,95.438,540.781,538.713,0.0
52559.0,STARLINK-3953,PAYLOAD,2024-04-18 21:43:40,15.08848484,0.0001339,53.2182,335.8665,102.5454,257.5688,0.00095939,0.00015017,0.0,0 STARLINK-3953,1 52559U 22051AC  24109.90532764  .00015017  00000-0  95939-3 0  9990,2 52559  53.2182 335.8665 0001339 102.5454 257.5688 15.08848484107449,6917.854,95.437,540.646,538.793,0.0
52559.0,STARLINK-3953,PAYLOAD,2024-04-19 00:54:26,15.08852865,0.0001377,53.2181,335.2708,99.6415,260.4733,0.00098083,0.00015362,0.0,0 STARLINK-3953,1 52559U 22051AC  24110.03780642  .00015362  00000-0  98083-3 0  9992,2 52559  53.2181 335.2708 0001377  99.6415 260.4733 15.08852865107537,6917.841,95.437,540.659,538.753,0.0
52559.0,STARLINK-3953,PAYLOAD,2024-04-19 19:59:04,15.08853055,0.0001538,53.2182,331.7028,95.6986,264.4181,0.00057447,8.87e-05,0.0,0 STARLINK-3953,1 52559U 22051AC  24110.83268698  .00008870  00000-0  57447-3 0  9997,2 52559  53.2182 331.7028 0001538  95.6986 264.4181 15.08853055107658,6917.84,95.437,540.769,538.642,0.0
